OBJECT_NAME,OBJECT_ID,EPOCH,MEAN_MOTION,ECCENTRICITY,INCLINATION,RA_OF_ASC_NODE,ARG_OF_PERICENTER,MEAN_ANOMALY,EPHEMERIS_TYPE,CLASSIFICATION_TYPE,NORAD_CAT_ID,ELEMENT_SET_NO,REV_AT_EPOCH,BSTAR,MEAN_MOTION_DOT,MEAN_MOTION_DDOT
STARLINK-31356,2024-031D,2026-06-11T08:33:14.523840,15.30199366,.0001285,53.1595,193.7667,83.8931,276.2216,0,U,58968,999,13126,-.4166E-4,-.1593E-4,0
STARLINK-31335,2024-031E,2026-06-11T10:16:05.107296,15.34393241,.0001277,53.1595,217.8387,104.2885,255.8260,0,U,58969,999,13093,.15482E-3,.4857E-4,0
STARLINK-31368,2024-031F,2026-06-11T11:02:42.836064,15.30196531,.0001016,53.1578,220.8818,79.6691,280.4424,0,U,58970,999,13089,.33792E-3,.9661E-4,0
STARLINK-31333,2024-031G,2026-06-11T10:36:14.753952,15.30191139,.000141,53.1597,208.6833,89.2125,270.9037,0,U,58971,999,13106,-.11547E-4,-.701E-5,0
STARLINK-31351,2024-031H,2026-06-11T11:28:32.835648,15.30189476,.0001117,53.1586,220.9802,99.4041,260.7086,0,U,58972,999,13088,-.31215E-4,-.1283E-4,0
STARLINK-31365,2024-031J,2026-06-11T11:37:39.722592,15.30190363,.0001366,53.1594,221.0182,109.2643,250.8506,0,U,58973,999,13089,-.1649E-5,-.408E-5,0
STARLINK-31361,2024-031K,2026-06-11T11:33:07.222176,15.30191493,.0001332,53.1588,221.0013,83.4120,276.7032,0,U,58974,999,13089,-.67877E-4,-.2368E-4,0
STARLINK-31369,2024-031L,2026-06-11T11:42:13.137120,15.30190077,.0001272,53.1599,221.0399,98.5582,261.5563,0,U,58975,999,13087,.10334E-4,-.53E-6,0
STARLINK-31324,2024-031M,2026-06-11T10:12:43.631136,15.30189009,.0001536,53.1593,221.3619,93.1226,266.9950,0,U,58976,999,13086,-.50854E-5,-.51E-5,0
STARLINK-31358,2024-031N,2026-06-11T10:59:40.062048,15.30199379,.0001311,53.1604,220.8501,110.0727,250.0415,0,U,58977,999,13087,-.17086E-4,-.865E-5,0
STARLINK-31355,2024-031P,2026-06-11T10:17:17.113920,15.30191605,.0001219,53.1606,221.3824,89.2645,270.8495,0,U,58978,999,13086,-.20934E-4,-.979E-5,0
STARLINK-31380,2024-031Q,2026-06-11T10:21:49.552128,15.30204099,.0001196,53.1585,221.4033,87.8235,272.2902,0,U,58979,999,13086,.4294E-4,.913E-5,0
STARLINK-31353,2024-031R,2026-06-11T10:18:48.010176,15.30196780,.0001781,53.1599,221.3902,117.5077,242.6105,0,U,58980,999,13086,-.43613E-4,-.1651E-4,0
STARLINK-31339,2024-031S,2026-06-11T11:14:29.065344,15.34393287,.0001364,53.1590,220.2147,89.3300,270.7859,0,U,58981,999,13088,.11486E-5,-.338E-5,0
STARLINK-31384,2024-031U,2026-06-11T11:05:23.521056,15.34398111,.0001457,53.1596,220.1744,83.6174,276.4995,0,U,58983,999,13088,-.59508E-4,-.2386E-4,0
STARLINK-31379,2024-031V,2026-06-11T10:41:35.354976,15.30190681,.0001369,53.1602,221.4916,108.2112,251.9038,0,U,58984,999,13086,.39779E-4,.819E-5,0
STARLINK-31385,2024-031W,2026-06-11T10:22:08.060736,15.34396879,.00013,53.1604,217.8207,89.0578,271.0573,0,U,58985,999,13091,.20737E-5,-.306E-5,0
STARLINK-31229,2024-031X,2026-06-11T10:50:43.134432,15.30194303,.0001062,53.1599,221.5295,108.5786,251.5330,0,U,58986,999,13086,-.32265E-4,-.1314E-4,0
CE-SAT-IE,2024-032A,2026-06-11T22:06:43.464096,14.68281106,.00041227,97.9961,217.7263,95.9698,264.1977,0,U,58987,999,12406,.72256965E-4,.369E-5,0
TIRSAT,2024-032C,2026-06-11T22:38:05.758944,14.72447941,.00055556,97.9968,221.3653,151.0209,209.1308,0,U,58989,999,12431,.17121097E-3,.1036E-4,0
INSAT-3DS,2024-033A,2026-06-11T22:11:27.226752,1.00272156,.00010721,0.0407,132.0234,302.8214,240.3771,0,U,58990,999,4701,0,-.14E-5,0
ADRAS-J,2024-034A,2026-06-11T22:06:38.549664,15.44929328,.01663036,98.2223,193.2596,131.2695,230.3013,0,U,58992,999,12677,.13471703E-2,.10898E-2,0
MERAH PUTIH 2,2024-035A,2026-06-11T22:20:11.389632,1.00270895,.00008828,0.0213,7.5524,93.8307,246.8819,0,U,58995,999,853,0,0,0
AAC-AIS-SAT3,2023-174DJ,2026-06-11T22:43:32.738016,14.84712721,.00058636,97.6243,211.8294,352.2477,7.8646,0,U,58997,999,14037,.35812554E-3,.2983E-4,0
STARLINK-31468,2024-036A,2026-06-11T18:49:44.786496,15.30243294,.00012267,53.1605,0.7899,86.7754,273.3387,0,U,58998,999,12974,.30047415E-3,.8562E-4,0
STARLINK-31440,2024-036B,2026-06-11T20:26:52.525248,15.30199316,.00013151,53.1619,0.4915,97.0235,263.0915,0,U,58999,999,12893,.85513559E-4,.2174E-4,0
STARLINK-31529,2024-036C,2026-06-11T19:17:53.491776,15.30198521,.0001669,53.1639,358.7772,100.0449,260.0740,0,U,59000,999,12968,-.899902E-5,-.626E-5,0
STARLINK-31431,2024-036E,2026-06-11T18:22:35.327424,15.30198324,.00013334,53.1630,1.3790,112.8793,247.2349,0,U,59002,999,12972,.13319267E-4,.35E-6,0
STARLINK-31435,2024-036G,2026-06-11T20:28:24.133440,15.30179624,.00011274,53.1615,0.4972,111.1021,249.0101,0,U,59004,999,12975,-.97330762E-4,-.3239E-4,0
STARLINK-31484,2024-036H,2026-06-11T20:32:57.233472,15.30191715,.00016707,53.1623,0.5139,59.3647,300.7518,0,U,59005,999,12974,-.1251534E-5,-.396E-5,0
STARLINK-31450,2024-036J,2026-06-11T20:43:35.472000,15.30188358,.00013992,53.1621,0.5590,84.0069,276.1091,0,U,59006,999,12974,-.15485048E-4,-.818E-5,0
STARLINK-31456,2024-036K,2026-06-11T20:37:30.676512,15.30194542,.00013315,53.1618,0.5331,70.0687,290.0457,0,U,59007,999,12974,-.22578244E-4,-.1028E-4,0
STARLINK-31460,2024-036L,2026-06-11T19:45:59.984352,15.30195492,.00012845,53.1616,1.0203,86.2988,273.8160,0,U,59008,999,12973,.116174E-4,-.15E-6,0
STARLINK-31488,2024-036M,2026-06-11T18:57:22.931136,15.30207193,.00014261,53.1599,0.8099,73.3453,286.7704,0,U,59009,999,12973,.96921498E-4,.2513E-4,0
STARLINK-31528,2024-036N,2026-06-11T20:16:22.270080,15.30200475,.00007492,53.1589,1.1576,70.3045,289.8036,0,U,59010,999,12973,-.10351038E-3,-.3423E-4,0
STARLINK-31491,2024-036P,2026-06-11T20:17:54.705120,15.30211595,.00009115,53.1623,1.1631,115.0109,245.0987,0,U,59011,999,12973,-.14563321E-4,-.79E-5,0
STARLINK-31465,2024-036Q,2026-06-11T20:10:20.588448,15.30176213,.00010085,53.1629,1.1271,100.8790,259.2324,0,U,59012,999,12973,-.53358797E-4,-.1938E-4,0
STARLINK-31389,2024-036R,2026-06-11T20:14:52.009728,15.30203742,.00009586,53.1615,1.1444,97.5274,262.5835,0,U,59013,999,12974,-.39441257E-4,-.1527E-4,0
STARLINK-31454,2024-036S,2026-06-11T18:31:42.164256,15.30198083,.00014042,53.1632,1.4125,106.0267,254.0889,0,U,59014,999,12972,.3831325E-4,.776E-5,0
STARLINK-31521,2024-036T,2026-06-11T18:30:11.158272,15.30194970,.00013448,53.1627,1.4051,105.6976,254.4173,0,U,59015,999,12972,.4446397E-5,-.228E-5,0
STARLINK-31526,2024-036U,2026-06-11T19:08:30.166368,15.31698361,.00013055,53.1630,335.2449,78.2849,281.8299,0,U,59016,999,13009,.12719371E-4,.3E-6,0
STARLINK-31406,2024-036V,2026-06-11T18:37:31.385280,15.34391905,.00011018,53.1619,346.5321,108.7837,251.3286,0,U,59017,999,12993,-.1464134E-5,-.426E-5,0
STARLINK-31527,2024-036W,2026-06-11T18:16:30.542304,15.30216811,.00012781,53.1617,1.3481,77.0067,283.1076,0,U,59018,999,12972,-.11542073E-3,-.3778E-4,0
STARLINK-31436,2024-036X,2026-06-11T18:45:23.104224,15.30198075,.00014235,53.1632,1.4691,109.8056,250.3098,0,U,59019,999,12972,-.75328291E-4,-.2589E-4,0
TJS-11,2024-037A,2026-06-09T19:10:56.423424,1.00155909,.0006664,4.2095,326.9725,186.9347,143.4309,0,U,59020,999,850,0,-.338E-5,0
STARLINK-30996,2024-038A,2026-06-10T10:42:12.743712,15.27586644,.00019704,43.0006,223.2167,284.3411,75.7222,0,U,59023,999,13031,.89767807E-4,.2209E-4,0
STARLINK-31006,2024-038B,2026-06-10T18:05:19.087296,15.27578699,.00023956,43.0085,171.0350,274.7566,85.3012,0,U,59024,999,12957,.19029796E-4,.261E-5,0
STARLINK-31178,2024-038C,2026-06-11T10:29:23.389728,15.27570993,.000217,42.9970,217.7502,281.9475,78.1133,0,U,59025,999,12898,-.11203E-3,-.3343E-4,0
STARLINK-30863,2024-038E,2026-06-11T11:00:49.170816,15.27575065,.0001266,43.0012,217.9056,269.1462,90.9245,0,U,59027,999,12898,-.30208E-5,-.345E-5,0
STARLINK-31206,2024-038F,2026-06-11T05:49:28.674336,15.27578997,.0001591,43.0006,153.6772,272.5666,87.5004,0,U,59028,999,12983,-.6803E-5,-.449E-5,0
STARLINK-31224,2024-038G,2026-06-11T14:31:07.546080,15.27581787,.00014594,43.0031,216.4340,261.8394,98.2293,0,U,59029,999,12912,.14400317E-4,.134E-5,0
STARLINK-31186,2024-038H,2026-06-10T11:02:34.124352,15.27577837,.00014049,43.0053,223.3180,271.3529,88.7162,0,U,59030,999,12894,.12749105E-4,.89E-6,0
STARLINK-31211,2024-038J,2026-06-10T21:08:00.217248,15.27579083,.00017886,43.0031,220.4586,282.4258,77.6393,0,U,59031,999,12890,-.22398185E-4,-.879E-5,0
STARLINK-30862,2024-038K,2026-06-10T20:42:21.203424,15.27577151,.00013901,42.9984,209.9858,261.9392,98.1302,0,U,59032,999,12902,.15230196E-4,.157E-5,0
STARLINK-31210,2024-038L,2026-06-11T05:36:29.795616,15.27579507,.0001347,43.0001,215.3597,269.0842,90.9855,0,U,59033,999,12916,.26281E-4,.461E-5,0
STARLINK-31231,2024-038M,2026-06-10T20:05:59.688096,15.27585606,.00014887,43.0091,217.5463,263.4605,96.6078,0,U,59034,999,12893,.25990851E-4,.453E-5,0
STARLINK-31207,2024-038N,2026-06-11T10:07:51.695040,15.27578833,.0001681,43.0000,214.1909,265.0478,95.0182,0,U,59035,999,12919,.40462E-4,.851E-5,0
STARLINK-31217,2024-038P,2026-06-11T14:32:16.742976,15.27574579,.00013374,43.0047,118.8294,268.2383,91.8315,0,U,59036,999,13030,.43398218E-4,.932E-5,0
STARLINK-31208,2024-038Q,2026-06-11T14:14:39.975936,15.27573991,.00021176,43.0009,217.1794,272.3635,87.6974,0,U,59037,999,12917,-.26308934E-3,-.7494E-4,0
STARLINK-31235,2024-038R,2026-06-11T10:04:09.732576,15.27579406,.0002229,43.0029,214.1728,276.6440,83.4158,0,U,59038,999,12913,.32708E-4,.638E-5,0
STARLINK-31220,2024-038S,2026-06-10T10:34:48.790272,15.27574663,.00011403,42.9852,223.1634,174.2240,185.8625,0,U,59039,999,12894,.43856582E-4,.945E-5,0
STARLINK-31225,2024-038T,2026-06-11T14:26:16.163808,15.27577252,.00015413,43.0018,212.9232,272.6464,87.4212,0,U,59040,999,12905,.10460606E-3,.2617E-4,0
STARLINK-31240,2024-038U,2026-06-11T10:39:19.185120,15.27573377,.0001291,42.9967,214.3568,273.6885,86.3819,0,U,59041,999,12913,.10046E-4,.14E-6,0
STARLINK-31202,2024-038V,2026-06-11T10:33:49.442112,15.28697736,.0001886,43.0007,213.4766,119.6335,240.4705,0,U,59042,999,12920,.41734E-3,.11637E-3,0
STARLINK-31234,2024-038W,2026-06-11T10:30:03.941568,15.27589493,.0001088,43.0039,214.3054,270.1254,89.9473,0,U,59043,999,12902,-.16326E-3,-.4753E-4,0
